ASTROCAST-0402          
1 55109U 23001DE  26068.80661100  .00010930  00000+0  41835-3 0  9996
2 55109  97.5556 160.6821 0004209 216.6984 143.3966 15.26734153129364
STARLINK-31881          
1 59659U 24084F   26068.27279507 -.00001732  00000+0 -53394-4 0  9995
2 59659  43.0039  40.3268 0000997 277.3177  82.7561 15.27592544104353
